0 ARIANE 1 DEB
1 25768U 79104K   13283.27217020  .00003004  00000-0  67787-2 0  7056
2 25768 017.7884 225.0550 5401737 321.8850 075.9780 04.72972486248221
0 ARIANE 1 DEB
1 25768U 79104K   13292.18075719  .00004436  00000-0  10146-1 0  7060
2 25768 017.7761 216.5400 5399907 337.6864 125.5822 04.73056635248655
0 ARIANE 1 DEB
1 25768U 79104K   13292.48653995  .00003451  00000-0  78326-2 0  7073
2 25768 017.7750 216.2377 5400749 338.2639 286.2517 04.73046701248667
0 ARIANE 1 DEB
1 25768U 79104K   13293.17318226  .00002255  00000-0  51207-2 0  7086
2 25768 017.7750 215.5803 5400950 339.4803 015.5762 04.73049200248698
0 ARIANE 1 DEB
1 25768U 79104K   13295.36075387  .00002414  00000-0  54884-2 0  7099
2 25768 017.7714 213.4863 5400611 343.3671 140.9574 04.73064425248805
